GAOFEN-1                
1 39150U 13018A   26175.31408259  .00000589  00000+0  91598-4 0  9991
2 39150  97.9091 247.2375 0015794 241.2447 118.7177 14.76543867709295
FENGYUN 4A              
1 41882U 16077A   26174.71183522 -.00000352  00000+0  00000+0 0  9992
2 41882   2.3403  80.2217 0008368 152.9998  58.5685  1.00265670 34994
FORMOSAT-5              
1 42920U 17049A   26175.22508184  .00000100  00000+0  36358-4 0  9998
2 42920  98.2252 250.3785 0012521  64.8634 295.3859 14.50900948467692
FENGYUN 3D              
1 43010U 17072A   26175.26530988  .00000477  00000+0  24723-3 0  9995
2 43010  99.0129 149.8154 0002401  50.8041 309.3347 14.19742043445992
GAOFEN-1 02             
1 43259U 18031A   26175.27892008  .00000870  00000+0  13254-3 0  9995
2 43259  98.0523 237.7863 0003135  13.9205 346.2090 14.76417603443745
GAOFEN-1 03             
1 43260U 18031B   26175.32475693  .00000097  00000+0  21320-4 0  9995
2 43260  98.0519 237.6898 0003715  65.1004 295.0591 14.76433229443748
FENGYUN 3E              
1 49008U 21062A   26175.31885531  .00000002  00000+0  21684-4 0  9993
2 49008  98.7498 178.6474 0002817  73.8457 286.3029 14.19904912257595
FENGYUN 3G              
1 56232U 23055A   26175.24957058  .00021166  00000+0  33996-3 0  9992
2 56232  49.9932 309.6241 0007172 326.0285  34.0222 15.52907569181107
FENGYUN 3F              
1 57490U 23111A   26175.30260569  .00000027  00000+0  33364-4 0  9996
2 57490  98.6834 245.1788 0001559  87.9729 272.1626 14.19940126149874
FENGYUN 3H              
1 65815U 25219A   26175.29907481  .00000032  00000+0  35621-4 0  9990
2 65815  98.6768 115.9299 0001541  71.7657 288.3688 14.19921497 38394
